start=new Date('2023-04-06T00:00:00.000Z').valueOf();
sats=[{"TLE_LINE1":"1 46532U 20070A   23095.76874006  .00017008  00000-0  11573-2 0  9991","APOAPSIS":"547.754","MEAN_MOTION_DOT":"0.00017008","TIME_SYSTEM":"UTC","ARG_OF_PERICENTER":"102.6150","PERIOD":"95.591","INCLINATION":"53.0516","MEAN_ANOMALY":"257.4936","MEAN_ELEMENT_THEORY":"SGP4","NORAD_CAT_ID":"46532","SITE":"AFETR","OBJECT_TYPE":"PAYLOAD","EPHEMERIS_TYPE":"0","RA_OF_ASC_NODE":"295.1877","MEAN_MOTION_DDOT":"0.0000000000000","FILE":"3881153","SEMIMAJOR_AXIS":"6925.288","OBJECT_NAME":"STARLINK-1644","RCS_SIZE":"LARGE","GP_ID":"229566727","REF_FRAME":"TEME","ELEMENT_SET_NO":"999","LAUNCH_DATE":"2020-10-06","EPOCH":"2023-04-05T18:26:59.141184","OBJECT_ID":"2020-070A","CLASSIFICATION_TYPE":"U","BSTAR":"0.00115730000000","ECCENTRICITY":"0.00008680","REV_AT_EPOCH":"13839","DECAY_DATE":null,"PERIAPSIS":"546.552","CENTER_NAME":"EARTH","COUNTRY_CODE":"US","MEAN_MOTION":"15.06419829","TLE_LINE2":"2 46532  53.0516 295.1877 0000868 102.6150 257.4936 15.06419829138393"},{"REV_AT_EPOCH":"13843","ECCENTRICITY":"0.00010190","PERIAPSIS":"546.507","DECAY_DATE":null,"CENTER_NAME":"EARTH","COUNTRY_CODE":"US","MEAN_MOTION":"15.06400441","TLE_LINE2":"2 46533  53.0531 294.5474 0001019  53.2529 306.8554 15.06400441138437","SEMIMAJOR_AXIS":"6925.347","GP_ID":"229546325","REF_FRAME":"TEME","RCS_SIZE":"LARGE","OBJECT_NAME":"STARLINK-1648","LAUNCH_DATE":"2020-10-06","EPOCH":"2023-04-05T21:53:59.293248","ELEMENT_SET_NO":"999","OBJECT_ID":"2020-070B","CLASSIFICATION_TYPE":"U","BSTAR":"0.00142750000000","INCLINATION":"53.0531","PERIOD":"95.592","ARG_OF_PERICENTER":"53.2529","NORAD_CAT_ID":"46533","MEAN_ELEMENT_THEORY":"SGP4","MEAN_ANOMALY":"306.8554","SITE":"AFETR","OBJECT_TYPE":"PAYLOAD","RA_OF_ASC_NODE":"294.5474","EPHEMERIS_TYPE":"0","FILE":"3881094","MEAN_MOTION_DDOT":"0.0000000000000","TLE_LINE1":"1 46533U 20070B   23095.91249182  .00021045  00000-0  14275-2 0  9998","MEAN_MOTION_DOT":"0.00021045","APOAPSIS":"547.918","TIME_SYSTEM":"UTC"},{"MEAN_MOTION_DDOT":"0.0000000000000","FILE":"3881153","EPHEMERIS_TYPE":"0","RA_OF_ASC_NODE":"294.9272","OBJECT_TYPE":"PAYLOAD","SITE":"AFETR","MEAN_ANOMALY":"274.2017","NORAD_CAT_ID":"46534","MEAN_ELEMENT_THEORY":"SGP4","ARG_OF_PERICENTER":"85.9104","INCLINATION":"53.0532","PERIOD":"95.590","TIME_SYSTEM":"UTC","APOAPSIS":"547.928","MEAN_MOTION_DOT":"0.00021442","TLE_LINE1":"1 46534U 20070C   23095.82771811  .00021442  00000-0  14529-2 0  9991","TLE_LINE2":"2 46534  53.0532 294.9272 0001155  85.9104 274.2017 15.06427936138408","MEAN_MOTION":"15.06427936","COUNTRY_CODE":"US","CENTER_NAME":"EARTH","DECAY_DATE":null,"PERIAPSIS":"546.328","ECCENTRICITY":"0.00011550","REV_AT_EPOCH":"13840","BSTAR":"0.00145290000000","CLASSIFICATION_TYPE":"U","OBJECT_ID":"2020-070C","LAUNCH_DATE":"2020-10-06","EPOCH":"2023-04-05T19:51:54.844704","ELEMENT_SET_NO":"999","OBJECT_NAME":"STARLINK-1659","RCS_SIZE":"LARGE","GP_ID":"229567712","REF_FRAME":"TEME","SEMIMAJOR_AXIS":"6925.263"},{"CENTER_NAME":"EARTH","ECCENTRICITY":"0.00006900","REV_AT_EPOCH":"13839","DECAY_DATE":null,"PERIAPSIS":"546.678","COUNTRY_CODE":"US","MEAN_MOTION":"15.06418763","TLE_LINE2":"2 46535  53.0525 294.9742 0000690  26.9257 333.1767 15.06418763138393","OBJECT_NAME":"STARLINK-1663","RCS_SIZE":"LARGE","GP_ID":"229566478","REF_FRAME":"TEME","ELEMENT_SET_NO":"999","LAUNCH_DATE":"2020-10-06","EPOCH":"2023-04-05T19:35:58.874496","SEMIMAJOR_AXIS":"6925.291","BSTAR":"0.00142670000000","OBJECT_ID":"2020-070D","CLASSIFICATION_TYPE":"U","SITE":"AFETR","ARG_OF_PERICENTER":"26.9257","PERIOD":"95.591","INCLINATION":"53.0525","MEAN_ANOMALY":"333.1767","NORAD_CAT_ID":"46535","MEAN_ELEMENT_THEORY":"SGP4","MEAN_MOTION_DDOT":"0.0000000000000","FILE":"3881153","OBJECT_TYPE":"PAYLOAD","EPHEMERIS_TYPE":"0","RA_OF_ASC_NODE":"294.9742","TLE_LINE1":"1 46535U 20070D   23095.81665364  .00021044  00000-0  14267-2 0  9993","TIME_SYSTEM":"UTC","APOAPSIS":"547.634","MEAN_MOTION_DOT":"0.00021044"},{"TLE_LINE2":"2 46537  53.0510 294.8574 0001033  99.8690 260.2415 15.06417435138400","COUNTRY_CODE":"US","MEAN_MOTION":"15.06417435","DECAY_DATE":null,"PERIAPSIS":"546.445","ECCENTRICITY":"0.00010330","REV_AT_EPOCH":"13840","CENTER_NAME":"EARTH","CLASSIFICATION_TYPE":"U","OBJECT_ID":"2020-070F","BSTAR":"0.00066096000000","SEMIMAJOR_AXIS":"6925.295","ELEMENT_SET_NO":"999","LAUNCH_DATE":"2020-10-06","EPOCH":"2023-04-05T20:13:08.373792","OBJECT_NAME":"STARLINK-1672","REF_FRAME":"TEME","GP_ID":"229567228","RCS_SIZE":"LARGE","EPHEMERIS_TYPE":"0","RA_OF_ASC_NODE":"294.8574","OBJECT_TYPE":"PAYLOAD","FILE":"3881153","MEAN_MOTION_DDOT":"0.0000000000000","MEAN_ANOMALY":"260.2415","MEAN_ELEMENT_THEORY":"SGP4","NORAD_CAT_ID":"46537","ARG_OF_PERICENTER":"99.8690","INCLINATION":"53.0510","PERIOD":"95.591","SITE":"AFETR","APOAPSIS":"547.876","MEAN_MOTION_DOT":"0.00009582","TIME_SYSTEM":"UTC","TLE_LINE1":"1 46537U 20070F   23095.84245803  .00009582  00000-0  66096-3 0  9991"},{"PERIAPSIS":"546.315","DECAY_DATE":null,"REV_AT_EPOCH":"13839","ECCENTRICITY":"0.00011620","CENTER_NAME":"EARTH","TLE_LINE2":"2 46538  53.0529 294.9600 0001162  54.1499 305.9598 15.06430772138392","COUNTRY_CODE":"US","MEAN_MOTION":"15.06430772","SEMIMAJOR_AXIS":"6925.254","ELEMENT_SET_NO":"999","LAUNCH_DATE":"2020-10-06","EPOCH":"2023-04-05T19:41:18.074976","GP_ID":"229567479","REF_FRAME":"TEME","RCS_SIZE":"LARGE","OBJECT_NAME":"STARLINK-1678","CLASSIFICATION_TYPE":"U","OBJECT_ID":"2020-070G","BSTAR":"0.00167290000000","MEAN_ELEMENT_THEORY":"SGP4","NORAD_CAT_ID":"46538","MEAN_ANOMALY":"305.9598","PERIOD":"95.590","INCLINATION":"53.0529","ARG_OF_PERICENTER":"54.1499","SITE":"AFETR","RA_OF_ASC_NODE":"294.9600","EPHEMERIS_TYPE":"0","OBJECT_TYPE":"PAYLOAD","FILE":"3881153","MEAN_MOTION_DDOT":"0.0000000000000","TLE_LINE1":"1 46538U 20070G   23095.82034809  .00024745  00000-0  16729-2 0  9997","MEAN_MOTION_DOT":"0.00024745","APOAPSIS":"547.924","TIME_SYSTEM":"UTC"},{"OBJECT_ID":"2020-070K","CLASSIFICATION_TYPE":"U","BSTAR":"0.00162220000000","SEMIMAJOR_AXIS":"6925.243","OBJECT_NAME":"STARLINK-1687","GP_ID":"229568212","RCS_SIZE":"LARGE","REF_FRAME":"TEME","LAUNCH_DATE":"2020-10-06","ELEMENT_SET_NO":"999","EPOCH":"2023-04-05T19:12:05.279040","MEAN_MOTION":"15.06434379","COUNTRY_CODE":"US","TLE_LINE2":"2 46541  53.0533 275.0494 0000801  94.1065 266.0016 15.06434379138674","ECCENTRICITY":"0.00008010","REV_AT_EPOCH":"13867","DECAY_DATE":null,"PERIAPSIS":"546.553","CENTER_NAME":"EARTH","APOAPSIS":"547.663","MEAN_MOTION_DOT":"0.00023986","TIME_SYSTEM":"UTC","TLE_LINE1":"1 46541U 20070K   23095.80006110  .00023986  00000-0  16222-2 0  9997","OBJECT_TYPE":"PAYLOAD","EPHEMERIS_TYPE":"0","RA_OF_ASC_NODE":"275.0494","FILE":"3881153","MEAN_MOTION_DDOT":"0.0000000000000","ARG_OF_PERICENTER":"94.1065","PERIOD":"95.590","INCLINATION":"53.0533","MEAN_ANOMALY":"266.0016","NORAD_CAT_ID":"46541","MEAN_ELEMENT_THEORY":"SGP4","SITE":"AFETR"},{"REV_AT_EPOCH":"13840","ECCENTRICITY":"0.00009520","PERIAPSIS":"546.486","DECAY_DATE":null,"CENTER_NAME":"EARTH","MEAN_MOTION":"15.06422336","COUNTRY_CODE":"US","TLE_LINE2":"2 46542  53.0523 294.7399 0000952 125.5603 234.5475 15.06422336138400","SEMIMAJOR_AXIS":"6925.280","GP_ID":"229566978","RCS_SIZE":"LARGE","REF_FRAME":"TEME","OBJECT_NAME":"STARLINK-1692","LAUNCH_DATE":"2020-10-06","ELEMENT_SET_NO":"999","EPOCH":"2023-04-05T20:50:17.917152","OBJECT_ID":"2020-070L","CLASSIFICATION_TYPE":"U","BSTAR":"0.00139300000000","PERIOD":"95.591","INCLINATION":"53.0523","ARG_OF_PERICENTER":"125.5603","MEAN_ELEMENT_THEORY":"SGP4","NORAD_CAT_ID":"46542","MEAN_ANOMALY":"234.5475","SITE":"AFETR","OBJECT_TYPE":"PAYLOAD","RA_OF_ASC_NODE":"294.7399","EPHEMERIS_TYPE":"0","FILE":"3881153","MEAN_MOTION_DDOT":"0.0000000000000","TLE_LINE1":"1 46542U 20070L   23095.86826293  .00020541  00000-0  13930-2 0  9993","MEAN_MOTION_DOT":"0.00020541","APOAPSIS":"547.804","TIME_SYSTEM":"UTC"},{"ARG_OF_PERICENTER":"119.1742","INCLINATION":"53.0528","PERIOD":"95.592","MEAN_ANOMALY":"240.9361","NORAD_CAT_ID":"46543","MEAN_ELEMENT_THEORY":"SGP4","SITE":"AFETR","OBJECT_TYPE":"PAYLOAD","EPHEMERIS_TYPE":"0","RA_OF_ASC_NODE":"294.8089","FILE":"3881153","MEAN_MOTION_DDOT":"0.0000000000000","TLE_LINE1":"1 46543U 20070M   23095.85350586  .00018762  00000-0  12751-2 0  9992","APOAPSIS":"548.006","MEAN_MOTION_DOT":"0.00018762","TIME_SYSTEM":"UTC","ECCENTRICITY":"0.00011470","REV_AT_EPOCH":"13840","DECAY_DATE":null,"PERIAPSIS":"546.418","CENTER_NAME":"EARTH","COUNTRY_CODE":"US","MEAN_MOTION":"15.06400474","TLE_LINE2":"2 46543  53.0528 294.8089 0001147 119.1742 240.9361 15.06400474138407","SEMIMAJOR_AXIS":"6925.347","OBJECT_NAME":"STARLINK-1693","RCS_SIZE":"LARGE","GP_ID":"229566728","REF_FRAME":"TEME","LAUNCH_DATE":"2020-10-06","EPOCH":"2023-04-05T20:29:02.906304","ELEMENT_SET_NO":"999","OBJECT_ID":"2020-070M","CLASSIFICATION_TYPE":"U","BSTAR":"0.00127510000000"},{"RA_OF_ASC_NODE":"280.1273","EPHEMERIS_TYPE":"0","OBJECT_TYPE":"PAYLOAD","MEAN_MOTION_DDOT":"0.0000000000000","FILE":"3881153","MEAN_ELEMENT_THEORY":"SGP4","NORAD_CAT_ID":"46544","MEAN_ANOMALY":"265.9018","INCLINATION":"53.0523","PERIOD":"95.590","ARG_OF_PERICENTER":"94.2088","SITE":"AFETR","MEAN_MOTION_DOT":"0.00025825","APOAPSIS":"547.828","TIME_SYSTEM":"UTC","TLE_LINE1":"1 46544U 20070N   23095.78302176  .00025825  00000-0  17449-2 0  9994","TLE_LINE2":"2 46544  53.0523 280.1273 0001020  94.2088 265.9018 15.06430003138601","MEAN_MOTION":"15.06430003","COUNTRY_CODE":"US","PERIAPSIS":"546.415","DECAY_DATE":null,"REV_AT_EPOCH":"13860","ECCENTRICITY":"0.00010200","CENTER_NAME":"EARTH","CLASSIFICATION_TYPE":"U","OBJECT_ID":"2020-070N","BSTAR":"0.00174490000000","SEMIMAJOR_AXIS":"6925.257","LAUNCH_DATE":"2020-10-06","ELEMENT_SET_NO":"999","EPOCH":"2023-04-05T18:47:33.080064","REF_FRAME":"TEME","GP_ID":"229567979","RCS_SIZE":"LARGE","OBJECT_NAME":"STARLINK-1694"}];
